#dP2024  5  8 12  0  0.00000000      96 __u+U IGS20 EXT  IAC
## 2313 302400.00000000   900.00000000 60438 0.5000000000000
+  119   C06C07C08C09C10C11C12C13C14C16C19C20C21C22C23C24C25
+        C26C27C28C29C30C32C33C34C35C36C37C38C39C40C41C42C43
+        C44C45C46E02E03E04E05E07E08E09E10E11E12E13E14E15E18
+        E19E21E24E25E26E27E30E31E33E34E36G02G03G04G05G06G07
+        G08G09G10G11G12G13G14G15G16G17G18G19G20G21G22G23G24
+        G25G26G27G28G29G30G31G32J02J03J04R01R02R03R04R05R07
+        R08R09R11R12R13R14R15R16R17R18R19R20R21R22R24R25R26
++         8 10  9 10  8  8  8  7  8  9  6  7  8  9  7  8  9
++         8  9  9  8  9 10  7  9  7  6  9  9 10 10  9  8  7
++         9  9  7  8  7  6  7  8  6  7  8  7  8  7  9  8  7
++         7  8  8  8  7  7  7  8  8  8  7  9  6  8  8  8  6
++        10  8 13  8  7  8  8  8  8  6  7  7  9  8 10  8  6
++         8  7 11  8  6  7  8  6 13  8 10 10  8  8  6  9  8
++         9  9  9  9  9 10  9  8  8  9  8  7  7  7  6  7  8
%c M  cc GPS ccc cccc cccc cccc cccc ccccc ccccc ccccc ccccc
%c cc cc ccc ccc cccc cccc cccc cccc ccccc ccccc ccccc ccccc
%f  0.0000000  0.000000000  0.00000000000  0.000000000000000
%f  0.0000000  0.000000000  0.00000000000  0.000000000000000
%i    0    0    0    0      0      0      0      0         0
%i    0    0    0    0      0      0      0      0         0
/* IAC                                ULTRA-RAPID PREDICTION
/* S/V CLOCKS ARE ALIGNED TO GNSS TIME                      
/* G:C1WC2W R:C1PC2P E:C1XC5X C:C2IC6I J:C1CC2S             
/* PCV:IGS20_2290 OL/AL:FES2004  NONE     YN ORB:CoN CLK:CoN
*  2024 05 09 10  0  0.00000000
PC06 -17452.065744  29363.313811 -24805.003468    407.922168
PC07  -6829.278264  39430.809049 -12842.882759   -746.154596
PC08  -2491.308711  21411.677819  36253.564348    -98.050625
PC09 -11568.713517  28186.221481 -28929.799884   -875.917744
PC10    104.706894  41454.885536  -5473.467872     27.830540
PC11   9071.440064  12841.619539  23116.113584    553.365633
PC12  -8210.589846  22803.486607  13863.910442   -243.299634
PC13   4683.589059  25272.103341  33650.347854    434.819639
PC14  13973.041732  22552.010924  -8529.394887    839.375431
PC16 -22030.611414  28725.693172 -21602.081521   -509.891066
PC19 -16888.048916 -15090.189514  16353.889147   -912.959905
PC20  -9822.810158 -26121.893526   1109.351744   -445.248007
PC21  -3995.642333  22256.291831  16345.556575   -966.214894
PC22 -14698.816581   5250.442932  23131.505946    -10.975520
PC23  26020.933442  -2259.464059   9835.003896   -778.254736
PC24   9222.498156  16733.050696 -20357.866674    926.521346
PC25  25217.073885   9514.030495  -7280.398838    395.284522
PC26 -11265.141413  13803.278408 -21487.563757   -288.758560
PC27  14755.510387 -22961.273947  -5815.714100    310.350623
PC28  21808.081126 -14394.040792   9799.215945    237.793277
PC29 -16284.846619  -4726.991127 -22172.186484    279.016605
PC30   -736.178849 -20390.099073 -19041.068197    -73.142131
PC32   3835.599324 -22281.584281 -16357.479152   -619.152285
PC33  16966.864163  15029.001481 -16255.425802   -966.128043
PC34   2172.738613  19530.549690  19804.037118    429.813771
PC35 -21339.218364  14958.823800 -10049.342290    367.478514
PC36 -24925.722467 -10150.680324   7387.308523     76.172377
PC37  11854.914674 -13441.235062  21406.856112   -969.606484
PC38 -10662.434015  19921.057455  35647.896799    154.003011
PC39 -24402.242237  29681.427422 -17548.853853     -8.290608
PC40 -11753.100245  37007.579578 -16088.484094    -69.312272
PC41  15001.391884  -4405.233647 -23059.094518   -943.515559
PC42   8791.321757  26455.383341    645.461664   -442.772514
PC43  15766.844086   5747.992497  22277.920427     70.995987
PC44 -13987.299826  23511.654345   5567.530410    467.961890
PC45 -26046.464109   2048.962229  -9777.441260    -84.755758
PC46  -9951.864627 -16572.794102  20109.622567   -146.728688
PE02 -12655.615960 -24098.001539  11611.620520    125.971954
PE03  -2366.769994 -26535.804753  12922.316971   -112.568300
PE04  14500.100526  10101.016134 -23731.429397   -392.770377
PE05  10887.138849 -27026.485501  -5231.259871   4746.057096
PE07 -17919.168832  11310.038019  20672.626354   -119.114230
PE08 -14006.338530 -10983.967924  23659.366263   -267.868898
PE09  17802.698271 -11276.909425 -20785.897238   -436.433077
PE10  28184.622818  -1766.940036   8858.583989   -623.415118
PE11  28271.048093  -8607.408676  -1515.190830   2899.362030
PE12  23929.220594   4770.218197  16732.791434  -1030.384050
PE13 -28418.794527   8258.113670    887.090760    -21.476901
PE14 -12860.008199 -19796.278359 -21025.405875     30.762148
PE15 -23575.311575  -5058.479757 -17176.716146   -101.833805
PE18  16215.291006   3086.914450  19339.120085     90.676862
PE19    700.821014  27366.198829 -11239.068214    -95.961746
PE21  -4845.410190  17771.699446 -23173.603382   -593.550519
PE24  20436.483007   -476.256595  21396.373321   -752.499098
PE25   5229.974998 -17502.809491  23292.646354      4.292604
PE26 -15992.305443  16752.044429  18436.520980    449.226345
PE27 -20242.116896    816.829747 -21581.176235   -344.865596
PE30 -23463.256951 -16557.386797  -7172.406612   -281.875930
PE31  23527.584140  16416.328038   7291.328559    -23.012273
PE33   4392.336738  15374.526971  24907.692202     11.459275
PE34  -5007.118412 -15210.229779 -24902.714753   -110.237235
PE36  16568.277459 -16521.111243 -18124.591758   -224.621272
PG02   2719.641294 -16192.233830 -20334.779358   -439.350383
PG03  -9360.206801 -21040.951760 -13496.738833    354.139273
PG04    273.242927 -24967.432086   8878.299565    357.118166
PG05  -4451.900606  15158.582373  21157.514859   -172.064680
PG06 -25871.587516   4944.462541  -3795.409969    282.196774
PG07 -17540.026139  -8611.755900  18706.602704   -125.031053
PG08   5908.752704 -25615.849561   1296.553967    168.548961
PG09  -9509.869799 -16900.515618  18046.032474    189.801335
PG10  21526.195186   7718.161282 -13573.174512    -20.209495
PG11 -21902.900651  12002.618312   8985.297662   -657.713705
PG12   6244.535227  21512.195443 -14596.550885   -503.788342
PG13 -13667.436944  21278.810169   7508.216264    649.118314
PG14 -21950.021763 -10884.522518 -10481.309202    396.376293
PG15  -2537.052953  26296.259112    820.526337    157.112377
PG16   9603.847794 -11677.060879  21476.257431   -296.260969
PG17 -14490.012215  -3307.289635 -21598.567943    707.678614
PG18  17969.731243   7631.393086  18108.730876   -607.836304
PG19 -16574.449494   6172.746189 -19873.501755    479.562974
PG20 -14217.338190   8409.626648  20832.226235    377.230364
PG21   7788.625813 -16858.108722 -18130.380483    122.663784
PG22 -19678.363224  -4490.272540 -16691.629514    -11.121100
PG23  21101.272455  16065.583422  -2769.725019    221.013250
PG24  -4066.390241  17558.221921 -19801.983392   -467.916745
PG25  15280.986545  20744.314572  -7327.238191    495.396179
PG26  19324.563672  -1881.845576  18124.254843    155.455987
PG27  12645.729452 -19873.590937  11551.080970    -23.099453
PG28  25461.519810  -3997.638037  -6421.948854   -236.484496
PG29   6007.560892  19515.305682  16868.025924   -599.085030
PG30 -24506.251117   -759.373927  10689.971990   -393.124468
PG31  24543.538107  -9856.542225   3948.341523   -227.879582
PG32  15318.255584     98.907393 -21468.570247   -618.361931
PJ02 -21021.418637  21166.887656 -25095.979311     -0.117541
PJ03 -30129.115831  28797.736979  11815.959018      0.151320
PJ04 -26571.486307  27212.741767  24016.284453     50.348269
PR01  -8072.655781 -22824.639159   8070.526606     84.835070
PR02 -11204.217578  -9356.566377  20951.145535    -22.921711
PR03  -8875.888900   9807.492854  21872.795823     99.800673
PR04  -1808.901404  22991.419576  10943.397987    235.608200
PR05   6143.793263  24051.756947  -5894.231591    131.236763
PR07   8591.047900 -10580.863610 -21505.723155     81.996051
PR08   1483.324604 -23131.440053 -10552.709817    -75.400749
PR09  24157.459559   7995.042236    959.444911    185.565820
PR11   5103.001020  -9749.090915  23022.651405     25.313905
PR12 -14622.363663 -13693.507950  15808.853120     39.919327
PR13 -23601.818007  -9535.594913   1621.725292    -47.205892
PR14 -19329.516903   1384.775626 -16586.477726     26.452703
PR15  -3574.356139  10456.415120 -22970.267518     79.988701
PR16  14514.198011  13522.728414 -16002.877801     25.428550
PR17 -20891.757087  13865.444720  -4577.408412     85.203751
PR18 -14192.757731  17680.822480  11749.921397    141.164570
PR19  -2073.117939  13415.616567  21589.324361   -276.001390
PR20  15999.488541   -628.290943  19842.874409   -112.535620
PR21  21032.993266 -13668.643406   4692.053984    -99.393302
PR22  13688.745363 -17414.204367 -12615.767127    113.039666
PR24 -16559.554165   1462.877224 -19331.138074    -55.097374
PR25  21464.271679 -13115.616035   4295.246848    -34.602085
PR26   1958.777829 -22588.914132 -11689.242921    -20.629505
EOF
